[{"OBJECT_NAME":"STARLINK-30764","OBJECT_ID":"2023-166W","EPOCH":"2026-02-16T17:45:26.253216","MEAN_MOTION":15.30181498,"ECCENTRICITY":0.000109,"INCLINATION":53.1591,"RA_OF_ASC_NODE":316.787,"ARG_OF_PERICENTER":129.7412,"MEAN_ANOMALY":230.3685,"EPHEMERIS_TYPE":0,"CLASSIFICATION_TYPE":"U","NORAD_CAT_ID":58170,"ELEMENT_SET_NO":999,"REV_AT_EPOCH":12997,"BSTAR":1.1621e-5,"MEAN_MOTION_DOT":-1.5e-7,"MEAN_MOTION_DDOT":0},{"OBJECT_NAME":"STARLINK-30752","OBJECT_ID":"2023-166X","EPOCH":"2026-02-16T17:40:52.698720","MEAN_MOTION":15.30183951,"ECCENTRICITY":0.0001202,"INCLINATION":53.1598,"RA_OF_ASC_NODE":316.7673,"ARG_OF_PERICENTER":64.7619,"MEAN_ANOMALY":295.3506,"EPHEMERIS_TYPE":0,"CLASSIFICATION_TYPE":"U","NORAD_CAT_ID":58171,"ELEMENT_SET_NO":999,"REV_AT_EPOCH":12997,"BSTAR":1.5758e-5,"MEAN_MOTION_DOT":1.07e-6,"MEAN_MOTION_DDOT":0},{"OBJECT_NAME":"STARLINK-30753","OBJECT_ID":"2023-167A","EPOCH":"2026-02-16T15:34:35.703840","MEAN_MOTION":15.02534743,"ECCENTRICITY":9.44e-5,"INCLINATION":43.0017,"RA_OF_ASC_NODE":259.9833,"ARG_OF_PERICENTER":246.3876,"MEAN_ANOMALY":113.6867,"EPHEMERIS_TYPE":0,"CLASSIFICATION_TYPE":"U","NORAD_CAT_ID":58175,"ELEMENT_SET_NO":999,"REV_AT_EPOCH":12779,"BSTAR":1.9768e-5,"MEAN_MOTION_DOT":6.4e-7,"MEAN_MOTION_DDOT":0},{"OBJECT_NAME":"STARLINK-30824","OBJECT_ID":"2023-167B","EPOCH":"2026-02-16T15:33:00.211968","MEAN_MOTION":15.0253899,"ECCENTRICITY":0.0001272,"INCLINATION":43.0029,"RA_OF_ASC_NODE":259.9744,"ARG_OF_PERICENTER":269.176,"MEAN_ANOMALY":90.8936,"EPHEMERIS_TYPE":0,"CLASSIFICATION_TYPE":"U","NORAD_CAT_ID":58176,"ELEMENT_SET_NO":999,"REV_AT_EPOCH":12779,"BSTAR":8.0528e-5,"MEAN_MOTION_DOT":8.84e-6,"MEAN_MOTION_DDOT":0},{"OBJECT_NAME":"STARLINK-30791","OBJECT_ID":"2023-167C","EPOCH":"2026-02-16T14:21:15.209280","MEAN_MOTION":15.02522443,"ECCENTRICITY":0.0001184,"INCLINATION":43.0036,"RA_OF_ASC_NODE":260.4431,"ARG_OF_PERICENTER":284.5397,"MEAN_ANOMALY":75.5314,"EPHEMERIS_TYPE":0,"CLASSIFICATION_TYPE":"U","NORAD_CAT_ID":58177,"ELEMENT_SET_NO":999,"REV_AT_EPOCH":12778,"BSTAR":0.000118,"MEAN_MOTION_DOT":1.39e-5,"MEAN_MOTION_DDOT":0},{"OBJECT_NAME":"STARLINK-30810","OBJECT_ID":"2023-167D","EPOCH":"2026-02-15T01:06:06.217920","MEAN_MOTION":15.02534186,"ECCENTRICITY":9.151e-5,"INCLINATION":43.0039,"RA_OF_ASC_NODE":269.4415,"ARG_OF_PERICENTER":271.4421,"MEAN_ANOMALY":88.6316,"EPHEMERIS_TYPE":0,"CLASSIFICATION_TYPE":"U","NORAD_CAT_ID":58178,"ELEMENT_SET_NO":999,"REV_AT_EPOCH":12754,"BSTAR":3.637441e-5,"MEAN_MOTION_DOT":2.88e-6,"MEAN_MOTION_DDOT":0},{"OBJECT_NAME":"STARLINK-30819","OBJECT_ID":"2023-167E","EPOCH":"2026-02-16T15:18:46.307808","MEAN_MOTION":15.02543142,"ECCENTRICITY":0.0001106,"INCLINATION":43.0027,"RA_OF_ASC_NODE":260.7439,"ARG_OF_PERICENTER":266.5544,"MEAN_ANOMALY":93.5172,"EPHEMERIS_TYPE":0,"CLASSIFICATION_TYPE":"U","NORAD_CAT_ID":58179,"ELEMENT_SET_NO":999,"REV_AT_EPOCH":12778,"BSTAR":-9.0047e-6,"MEAN_MOTION_DOT":-3.25e-6,"MEAN_MOTION_DDOT":0},{"OBJECT_NAME":"STARLINK-30806","OBJECT_ID":"2023-167F","EPOCH":"2026-02-16T14:10:02.942112","MEAN_MOTION":15.02535698,"ECCENTRICITY":9.6e-5,"INCLINATION":43.0011,"RA_OF_ASC_NODE":260.3857,"ARG_OF_PERICENTER":253.2594,"MEAN_ANOMALY":106.8143,"EPHEMERIS_TYPE":0,"CLASSIFICATION_TYPE":"U","NORAD_CAT_ID":58180,"ELEMENT_SET_NO":999,"REV_AT_EPOCH":12778,"BSTAR":-7.8154e-5,"MEAN_MOTION_DOT":-1.259e-5,"MEAN_MOTION_DDOT":0},{"OBJECT_NAME":"STARLINK-30821","OBJECT_ID":"2023-167G","EPOCH":"2026-02-15T23:54:55.078848","MEAN_MOTION":15.02525184,"ECCENTRICITY":6.921e-5,"INCLINATION":42.999,"RA_OF_ASC_NODE":263.6706,"ARG_OF_PERICENTER":268.1954,"MEAN_ANOMALY":91.8809,"EPHEMERIS_TYPE":0,"CLASSIFICATION_TYPE":"U","NORAD_CAT_ID":58181,"ELEMENT_SET_NO":999,"REV_AT_EPOCH":12769,"BSTAR":-0.00012246463,"MEAN_MOTION_DOT":-1.857e-5,"MEAN_MOTION_DDOT":0},{"OBJECT_NAME":"STARLINK-30778","OBJECT_ID":"2023-167H","EPOCH":"2026-02-16T14:11:39.463872","MEAN_MOTION":15.02545001,"ECCENTRICITY":0.0001254,"INCLINATION":43.0047,"RA_OF_ASC_NODE":260.3943,"ARG_OF_PERICENTER":267.0076,"MEAN_ANOMALY":93.0623,"EPHEMERIS_TYPE":0,"CLASSIFICATION_TYPE":"U","NORAD_CAT_ID":58182,"ELEMENT_SET_NO":999,"REV_AT_EPOCH":12778,"BSTAR":7.9353e-5,"MEAN_MOTION_DOT":8.69e-6,"MEAN_MOTION_DDOT":0},{"OBJECT_NAME":"STARLINK-30809","OBJECT_ID":"2023-167J","EPOCH":"2026-02-16T15:09:11.346048","MEAN_MOTION":15.02547416,"ECCENTRICITY":2.5e-5,"INCLINATION":42.9921,"RA_OF_ASC_NODE":260.7002,"ARG_OF_PERICENTER":309.7717,"MEAN_ANOMALY":50.3103,"EPHEMERIS_TYPE":0,"CLASSIFICATION_TYPE":"U","NORAD_CAT_ID":58183,"ELEMENT_SET_NO":999,"REV_AT_EPOCH":12778,"BSTAR":5.6726e-5,"MEAN_MOTION_DOT":5.63e-6,"MEAN_MOTION_DDOT":0},{"OBJECT_NAME":"STARLINK-30801","OBJECT_ID":"2023-167K","EPOCH":"2026-02-16T15:04:24.173184","MEAN_MOTION":15.02531434,"ECCENTRICITY":0.0001465,"INCLINATION":43.0036,"RA_OF_ASC_NODE":260.6697,"ARG_OF_PERICENTER":266.1519,"MEAN_ANOMALY":93.9156,"EPHEMERIS_TYPE":0,"CLASSIFICATION_TYPE":"U","NORAD_CAT_ID":58184,"ELEMENT_SET_NO":999,"REV_AT_EPOCH":12778,"BSTAR":8.8211e-5,"MEAN_MOTION_DOT":9.88e-6,"MEAN_MOTION_DDOT":0},{"OBJECT_NAME":"STARLINK-30793","OBJECT_ID":"2023-167L","EPOCH":"2026-02-16T15:42:34.701984","MEAN_MOTION":15.02537986,"ECCENTRICITY":0.0001224,"INCLINATION":43.0027,"RA_OF_ASC_NODE":260.008,"ARG_OF_PERICENTER":264.3443,"MEAN_ANOMALY":95.726,"EPHEMERIS_TYPE":0,"CLASSIFICATION_TYPE":"U","NORAD_CAT_ID":58185,"ELEMENT_SET_NO":999,"REV_AT_EPOCH":12779,"BSTAR":6.3836e-5,"MEAN_MOTION_DOT":6.59e-6,"MEAN_MOTION_DDOT":0},{"OBJECT_NAME":"STARLINK-30755","OBJECT_ID":"2023-167M","EPOCH":"2026-02-16T14:51:36.266400","MEAN_MOTION":15.02536239,"ECCENTRICITY":0.0001269,"INCLINATION":43.0034,"RA_OF_ASC_NODE":260.6032,"ARG_OF_PERICENTER":264.5943,"MEAN_ANOMALY":95.4755,"EPHEMERIS_TYPE":0,"CLASSIFICATION_TYPE":"U","NORAD_CAT_ID":58186,"ELEMENT_SET_NO":999,"REV_AT_EPOCH":12778,"BSTAR":1.71e-5,"MEAN_MOTION_DOT":2.7e-7,"MEAN_MOTION_DDOT":0},{"OBJECT_NAME":"STARLINK-30760","OBJECT_ID":"2023-167N","EPOCH":"2026-02-16T15:37:47.581824","MEAN_MOTION":15.02530705,"ECCENTRICITY":0.0001101,"INCLINATION":43.0035,"RA_OF_ASC_NODE":259.9835,"ARG_OF_PERICENTER":258.2419,"MEAN_ANOMALY":101.83,"EPHEMERIS_TYPE":0,"CLASSIFICATION_TYPE":"U","NORAD_CAT_ID":58187,"ELEMENT_SET_NO":999,"REV_AT_EPOCH":12779,"BSTAR":5.4647e-5,"MEAN_MOTION_DOT":5.35e-6,"MEAN_MOTION_DDOT":0},{"OBJECT_NAME":"STARLINK-30826","OBJECT_ID":"2023-167P","EPOCH":"2026-02-16T19:37:11.763264","MEAN_MOTION":15.02533908,"ECCENTRICITY":0.000114,"INCLINATION":43.0027,"RA_OF_ASC_NODE":259.5086,"ARG_OF_PERICENTER":258.4702,"MEAN_ANOMALY":101.6012,"EPHEMERIS_TYPE":0,"CLASSIFICATION_TYPE":"U","NORAD_CAT_ID":58188,"ELEMENT_SET_NO":999,"REV_AT_EPOCH":12781,"BSTAR":2.9424e-5,"MEAN_MOTION_DOT":1.94e-6,"MEAN_MOTION_DDOT":0},{"OBJECT_NAME":"STARLINK-30796","OBJECT_ID":"2023-167Q","EPOCH":"2026-02-16T14:54:48.184992","MEAN_MOTION":15.02537799,"ECCENTRICITY":8.22e-5,"INCLINATION":43.002,"RA_OF_ASC_NODE":260.6189,"ARG_OF_PERICENTER":266.607,"MEAN_ANOMALY":93.4678,"EPHEMERIS_TYPE":0,"CLASSIFICATION_TYPE":"U","NORAD_CAT_ID":58189,"ELEMENT_SET_NO":999,"REV_AT_EPOCH":12778,"BSTAR":3.5805e-5,"MEAN_MOTION_DOT":2.8e-6,"MEAN_MOTION_DDOT":0}]
