STARLINK-30764          
1 58170U 23166W   26047.73988719 -.00000015  00000+0  11621-4 0  9991
2 58170  53.1591 316.7870 0001090 129.7412 230.3685 15.30181498129970
STARLINK-30752          
1 58171U 23166X   26047.73672105  .00000107  00000+0  15758-4 0  9997
2 58171  53.1598 316.7673 0001202  64.7619 295.3506 15.30183951129970
STARLINK-30753          
1 58175U 23167A   26047.64902435  .00000064  00000+0  19768-4 0  9991
2 58175  43.0017 259.9833 0000944 246.3876 113.6867 15.02534743127797
STARLINK-30824          
1 58176U 23167B   26047.64791912  .00000884  00000+0  80528-4 0  9990
2 58176  43.0029 259.9744 0001272 269.1760  90.8936 15.02538990127793
STARLINK-30791          
1 58177U 23167C   26047.59809270  .00001390  00000+0  11800-3 0  9991
2 58177  43.0036 260.4431 0001184 284.5397  75.5314 15.02522443127786
STARLINK-30810          
1 58178U 23167D   26046.04590530  .00000288  00000+0  36374-4 0  9996
2 58178  43.0039 269.4415 0000915 271.4421  88.6316 15.02534186127543
STARLINK-30819          
1 58179U 23167E   26047.63803597 -.00000325  00000+0 -90047-5 0  9995
2 58179  43.0027 260.7439 0001106 266.5544  93.5172 15.02543142127788
STARLINK-30806          
1 58180U 23167F   26047.59031183 -.00001259  00000+0 -78154-4 0  9997
2 58180  43.0011 260.3857 0000960 253.2594 106.8143 15.02535698127781
STARLINK-30821          
1 58181U 23167G   26046.99647082 -.00001857  00000+0 -12246-3 0  9995
2 58181  42.9990 263.6706 0000692 268.1954  91.8809 15.02525184127693
STARLINK-30778          
1 58182U 23167H   26047.59142898  .00000869  00000+0  79353-4 0  9991
2 58182  43.0047 260.3943 0001254 267.0076  93.0623 15.02545001127782
STARLINK-30809          
1 58183U 23167J   26047.63138132  .00000563  00000+0  56726-4 0  9993
2 58183  42.9921 260.7002 0000250 309.7717  50.3103 15.02547416127784
STARLINK-30801          
1 58184U 23167K   26047.62805756  .00000988  00000+0  88211-4 0  9991
2 58184  43.0036 260.6697 0001465 266.1519  93.9156 15.02531434127782
STARLINK-30793          
1 58185U 23167L   26047.65456831  .00000659  00000+0  63836-4 0  9992
2 58185  43.0027 260.0080 0001224 264.3443  95.7260 15.02537986127797
STARLINK-30755          
1 58186U 23167M   26047.61916975  .00000027  00000+0  17100-4 0  9991
2 58186  43.0034 260.6032 0001269 264.5943  95.4755 15.02536239127780
STARLINK-30760          
1 58187U 23167N   26047.65124516  .00000535  00000+0  54647-4 0  9999
2 58187  43.0035 259.9835 0001101 258.2419 101.8300 15.02530705127798
STARLINK-30826          
1 58188U 23167P   26047.81749726  .00000194  00000+0  29424-4 0  9990
2 58188  43.0027 259.5086 0001140 258.4702 101.6012 15.02533908127813
STARLINK-30796          
1 58189U 23167Q   26047.62139103  .00000280  00000+0  35805-4 0  9998
2 58189  43.0020 260.6189 0000822 266.6070  93.4678 15.02537799127783
